{"type": "FeatureCollection", "features": [ {"type": "Feature", "properties": {"norad_id": 54031, "name": "COSMOS 2559 (707K)", "group": "gnss", "lat": 43.82338382648377, "lon": 113.3670869176457, "alt_km": 19111.030969921274, "timestamp": "2025-12-22T15:43:49.247166+00:00", "meta": {"OBJECT_NAME": "COSMOS 2559 (707K)", "OBJECT_ID": "2022-130A", "EPOCH": "2025-12-22T00:24:12.527424", "MEAN_MOTION": 2.13101328, "ECCENTRICITY": 0.00115649, "INCLINATION": 64.377, "RA_OF_ASC_NODE": 320.8148, "ARG_OF_PERICENTER": 191.8741, "MEAN_ANOMALY": 168.0944, "EPHEMERIS_TYPE": 0, "CLASSIFICATION_TYPE": "U", "NORAD_CAT_ID": 54031, "ELEMENT_SET_NO": 999, "REV_AT_EPOCH": 2491, "BSTAR": 0, "MEAN_MOTION_DOT": -4.4e-07, "MEAN_MOTION_DDOT": 0}, "tle": {"line1": "1 54031U 22130A   25356.01681166 -.00000044  00000+0  00000+0 0  9998", "line2": "2 54031  64.3770 320.8148 0011564 191.8741 168.0944  2.13101328 24915"}}, "geometry": {"type": "Point", "coordinates": [113.3670869176457, 43.82338382648377]}}, {"type": "Feature", "properties": {"norad_id": 54377, "name": "COSMOS 2564 (761)", "group": "gnss", "lat": -57.91250723077023, "lon": 67.47029306512697, "alt_km": 19120.93513332164, "timestamp": "2025-12-22T15:43:49.247177+00:00", "meta": {"OBJECT_NAME": "COSMOS 2564 (761)", "OBJECT_ID": "2022-161A", "EPOCH": "2025-12-21T20:39:47.776032", "MEAN_MOTION": 2.13102051, "ECCENTRICITY": 0.00085446, "INCLINATION": 64.7387, "RA_OF_ASC_NODE": 198.5958, "ARG_OF_PERICENTER": 203.7304, "MEAN_ANOMALY": 156.2998, "EPHEMERIS_TYPE": 0, "CLASSIFICATION_TYPE": "U", "NORAD_CAT_ID": 54377, "ELEMENT_SET_NO": 999, "REV_AT_EPOCH": 2385, "BSTAR": 0, "MEAN_MOTION_DOT": 9.6e-07, "MEAN_MOTION_DDOT": 0}, "tle": {"line1": "1 54377U 22161A   25355.86096963  .00000096  00000+0  00000+0 0  9998", "line2": "2 54377  64.7387 198.5958 0008544 203.7304 156.2998  2.13102051 23851"}}, "geometry": {"type": "Point", "coordinates": [67.47029306512697, -57.91250723077023]}}, {"type": "Feature", "properties": {"norad_id": 55268, "name": "GPS BIII-6  (PRN 28)", "group": "gnss", "lat": 29.848179503811625, "lon": -48.165377345148656, "alt_km": 20187.61725139142, "timestamp": "2025-12-22T15:43:49.247188+00:00", "meta": {"OBJECT_NAME": "GPS BIII-6  (PRN 28)", "OBJECT_ID": "2023-009A", "EPOCH": "2025-12-21T11:01:56.819424", "MEAN_MOTION": 2.00555004, "ECCENTRICITY": 0.00037189, "INCLINATION": 55.1065, "RA_OF_ASC_NODE": 155.503, "ARG_OF_PERICENTER": 355.6529, "MEAN_ANOMALY": 3.5346, "EPHEMERIS_TYPE": 0, "CLASSIFICATION_TYPE": "U", "NORAD_CAT_ID": 55268, "ELEMENT_SET_NO": 999, "REV_AT_EPOCH": 2167, "BSTAR": 0, "MEAN_MOTION_DOT": 6.8e-07, "MEAN_MOTION_DDOT": 0}, "tle": {"line1": "1 55268U 23009A   25355.45968541  .00000068  00000+0  00000+0 0  9994", "line2": "2 55268  55.1065 155.5030 0003718 355.6529   3.5346  2.00555004 21671"}}, "geometry": {"type": "Point", "coordinates": [-48.165377345148656, 29.848179503811625]}}, {"type": "Feature", "properties": {"norad_id": 56564, "name": "BEIDOU-3 G4 (C62)", "group": "gnss", "lat": -0.04384672033476467, "lon": 127.44145890401249, "alt_km": 35777.88945080452, "timestamp": "2025-12-22T15:43:49.247202+00:00", "meta": {"OBJECT_NAME": "BEIDOU-3 G4 (C62)", "OBJECT_ID": "2023-066A", "EPOCH": "2025-12-22T05:22:00.430176", "MEAN_MOTION": 1.00271314, "ECCENTRICITY": 0.0002668, "INCLINATION": 0.7954, "RA_OF_ASC_NODE": 302.7801, "ARG_OF_PERICENTER": 226.6515, "MEAN_ANOMALY": 162.1611, "EPHEMERIS_TYPE": 0, "CLASSIFICATION_TYPE": "U", "NORAD_CAT_ID": 56564, "ELEMENT_SET_NO": 999, "REV_AT_EPOCH": 962, "BSTAR": 0, "MEAN_MOTION_DOT": -8.8e-07, "MEAN_MOTION_DDOT": 0}, "tle": {"line1": "1 56564U 23066A   25356.22361609 -.00000088  00000+0  00000+0 0  9998", "line2": "2 56564   0.7954 302.7801 0002668 226.6515 162.1611  1.00271314  9627"}}, "geometry": {"type": "Point", "coordinates": [127.44145890401249, -0.04384672033476467]}}, {"type": "Feature", "properties": {"norad_id": 56759, "name": "NVS-01 (IRNSS-1J)", "group": "gnss", "lat": -1.0979699445640938, "lon": 96.92788543363352, "alt_km": 35822.717197387625, "timestamp": "2025-12-22T15:43:49.247215+00:00", "meta": {"OBJECT_NAME": "NVS-01 (IRNSS-1J)", "OBJECT_ID": "2023-076A", "EPOCH": "2025-12-21T22:22:26.393088", "MEAN_MOTION": 1.00272923, "ECCENTRICITY": 0.00087734, "INCLINATION": 2.597, "RA_OF_ASC_NODE": 251.2758, "ARG_OF_PERICENTER": 16.4862, "MEAN_ANOMALY": 288.1521, "EPHEMERIS_TYPE": 0, "CLASSIFICATION_TYPE": "U", "NORAD_CAT_ID": 56759, "ELEMENT_SET_NO": 999, "REV_AT_EPOCH": 933, "BSTAR": 0, "MEAN_MOTION_DOT": -3.11e-06, "MEAN_MOTION_DDOT": 0}, "tle": {"line1": "1 56759U 23076A   25355.93224992 -.00000311  00000+0  00000+0 0  9994", "line2": "2 56759   2.5970 251.2758 0008773  16.4862 288.1521  1.00272923  9337"}}, "geometry": {"type": "Point", "coordinates": [96.92788543363352, -1.0979699445640938]}}, {"type": "Feature", "properties": {"norad_id": 57517, "name": "COSMOS 2569 (703K)", "group": "gnss", "lat": -51.16339089393032, "lon": -66.42229366778348, "alt_km": 19117.14256536032, "timestamp": "2025-12-22T15:43:49.247226+00:00", "meta": {"OBJECT_NAME": "COSMOS 2569 (703K)", "OBJECT_ID": "2023-114A", "EPOCH": "2025-12-20T11:11:48.591168", "MEAN_MOTION": 2.13103983, "ECCENTRICITY": 0.00107986, "INCLINATION": 65.1981, "RA_OF_ASC_NODE": 78.6524, "ARG_OF_PERICENTER": 287.0398, "MEAN_ANOMALY": 72.8764, "EPHEMERIS_TYPE": 0, "CLASSIFICATION_TYPE": "U", "NORAD_CAT_ID": 57517, "ELEMENT_SET_NO": 999, "REV_AT_EPOCH": 1845, "BSTAR": 0, "MEAN_MOTION_DOT": -1.8e-07, "MEAN_MOTION_DDOT": 0}, "tle": {"line1": "1 57517U 23114A   25354.46653462 -.00000018  00000+0  00000+0 0  9999", "line2": "2 57517  65.1981  78.6524 0010798 287.0398  72.8764  2.13103983 18453"}}, "geometry": {"type": "Point", "coordinates": [-66.42229366778348, -51.16339089393032]}}, {"type": "Feature", "properties": {"norad_id": 58654, "name": "BEIDOU-3 M28 (C50)", "group": "gnss", "lat": 8.375747677456202, "lon": 74.06825957792519, "alt_km": 21528.189253205237, "timestamp": "2025-12-22T15:43:49.247239+00:00", "meta": {"OBJECT_NAME": "BEIDOU-3 M28 (C50)", "OBJECT_ID": "2023-207A", "EPOCH": "2025-12-22T02:28:45.780096", "MEAN_MOTION": 1.86229752, "ECCENTRICITY": 0.00028015, "INCLINATION": 55.5924, "RA_OF_ASC_NODE": 68.2843, "ARG_OF_PERICENTER": 274.1973, "MEAN_ANOMALY": 85.8199, "EPHEMERIS_TYPE": 0, "CLASSIFICATION_TYPE": "U", "NORAD_CAT_ID": 58654, "ELEMENT_SET_NO": 999, "REV_AT_EPOCH": 1354, "BSTAR": 0, "MEAN_MOTION_DOT": -3.2e-07, "MEAN_MOTION_DDOT": 0}, "tle": {"line1": "1 58654U 23207A   25356.10330764 -.00000032  00000+0  00000+0 0  9991", "line2": "2 58654  55.5924  68.2843 0002801 274.1973  85.8199  1.86229752 13540"}}, "geometry": {"type": "Point", "coordinates": [74.06825957792519, 8.375747677456202]}}, {"type": "Feature", "properties": {"norad_id": 58655, "name": "BEIDOU-3 M26 (C48)", "group": "gnss", "lat": 27.599720172745766, "lon": -132.69132968935497, "alt_km": 21529.232591414006, "timestamp": "2025-12-22T15:43:49.247250+00:00", "meta": {"OBJECT_NAME": "BEIDOU-3 M26 (C48)", "OBJECT_ID": "2023-207B", "EPOCH": "2025-12-21T08:44:02.320800", "MEAN_MOTION": 1.8623129, "ECCENTRICITY": 0.0004111, "INCLINATION": 55.5938, "RA_OF_ASC_NODE": 68.2956, "ARG_OF_PERICENTER": 259.2953, "MEAN_ANOMALY": 100.7044, "EPHEMERIS_TYPE": 0, "CLASSIFICATION_TYPE": "U", "NORAD_CAT_ID": 58655, "ELEMENT_SET_NO": 999, "REV_AT_EPOCH": 1351, "BSTAR": 0, "MEAN_MOTION_DOT": -3.7e-07, "MEAN_MOTION_DDOT": 0}, "tle": {"line1": "1 58655U 23207B   25355.36391575 -.00000037  00000+0  00000+0 0  9991", "line2": "2 58655  55.5938  68.2956 0004111 259.2953 100.7044  1.86231290 13512"}}, "geometry": {"type": "Point", "coordinates": [-132.69132968935497, 27.599720172745766]}}, {"type": "Feature", "properties": {"norad_id": 59598, "name": "GSAT0225 (GALILEO 29)", "group": "gnss", "lat": -47.2771457745351, "lon": -24.75016827941573, "alt_km": 23223.741320558784, "timestamp": "2025-12-22T15:43:49.247262+00:00", "meta": {"OBJECT_NAME": "GSAT0225 (GALILEO 29)", "OBJECT_ID": "2024-079A", "EPOCH": "2025-12-22T06:14:03.688224", "MEAN_MOTION": 1.70474978, "ECCENTRICITY": 0.00022203, "INCLINATION": 55.0066, "RA_OF_ASC_NODE": 106.0297, "ARG_OF_PERICENTER": 187.8094, "MEAN_ANOMALY": 172.9873, "EPHEMERIS_TYPE": 0, "CLASSIFICATION_TYPE": "U", "NORAD_CAT_ID": 59598, "ELEMENT_SET_NO": 999, "REV_AT_EPOCH": 1030, "BSTAR": 0, "MEAN_MOTION_DOT": 6e-08, "MEAN_MOTION_DDOT": 0}, "tle": {"line1": "1 59598U 24079A   25356.25976491  .00000006  00000+0  00000+0 0  9996", "line2": "2 59598  55.0066 106.0297 0002220 187.8094 172.9873  1.70474978 10306"}}, "geometry": {"type": "Point", "coordinates": [-24.75016827941573, -47.2771457745351]}}, {"type": "Feature", "properties": {"norad_id": 59600, "name": "GSAT0227 (GALILEO 30)", "group": "gnss", "lat": 38.097542146937215, "lon": -107.24752889755582, "alt_km": 23209.253483668002, "timestamp": "2025-12-22T15:43:49.247273+00:00", "meta": {"OBJECT_NAME": "GSAT0227 (GALILEO 30)", "OBJECT_ID": "2024-079C", "EPOCH": "2025-12-21T06:26:54.422016", "MEAN_MOTION": 1.70474873, "ECCENTRICITY": 0.0002853, "INCLINATION": 55.0016, "RA_OF_ASC_NODE": 106.0558, "ARG_OF_PERICENTER": 117.2583, "MEAN_ANOMALY": 242.7417, "EPHEMERIS_TYPE": 0, "CLASSIFICATION_TYPE": "U", "NORAD_CAT_ID": 59600, "ELEMENT_SET_NO": 999, "REV_AT_EPOCH": 1033, "BSTAR": 0, "MEAN_MOTION_DOT": 1e-08, "MEAN_MOTION_DDOT": 0}, "tle": {"line1": "1 59600U 24079C   25355.26868544  .00000001  00000+0  00000+0 0  9994", "line2": "2 59600  55.0016 106.0558 0002853 117.2583 242.7417  1.70474873 10334"}}, "geometry": {"type": "Point", "coordinates": [-107.24752889755582, 38.097542146937215]}}]}